[{"OBJECT_NAME":"SDA_1671","OBJECT_ID":"2025-230H","EPOCH":"2026-03-09T17:44:20.295456","MEAN_MOTION":13.85388686,"ECCENTRICITY":0.00046746,"INCLINATION":81.3008,"RA_OF_ASC_NODE":303.8297,"ARG_OF_PERICENTER":111.686,"MEAN_ANOMALY":248.4795,"EPHEMERIS_TYPE":0,"CLASSIFICATION_TYPE":"U","NORAD_CAT_ID":65981,"ELEMENT_SET_NO":999,"REV_AT_EPOCH":2005,"BSTAR":0.00023629654,"MEAN_MOTION_DOT":2.81e-6,"MEAN_MOTION_DDOT":0},{"OBJECT_NAME":"CZ-4B DEB","OBJECT_ID":"2008-026E","EPOCH":"2026-03-09T09:07:00.254784","MEAN_MOTION":13.82175156,"ECCENTRICITY":0.0219598,"INCLINATION":98.7369,"RA_OF_ASC_NODE":114.3747,"ARG_OF_PERICENTER":3.1681,"MEAN_ANOMALY":51.7178,"EPHEMERIS_TYPE":0,"CLASSIFICATION_TYPE":"U","NORAD_CAT_ID":37573,"ELEMENT_SET_NO":999,"REV_AT_EPOCH":87816,"BSTAR":0.00038198739,"MEAN_MOTION_DOT":4.55e-6,"MEAN_MOTION_DDOT":0}]
